LANDSAT 9               
1 49260U 21088A   23256.81504316  .00000711  00000+0  16785-3 0  9994
2 49260  98.2229 325.6175 0001358  95.4713 264.6640 14.57107251104309
